*******************************************************************************
JPL/HORIZONS                       4 Vesta                 2011-May-07 08:06:20
Rec #:     4 (+COV)   Soln.date: 2011-Feb-04_09:57:23   # obs: 6635 (1827-2010)
 
FK5/J2000.0 helio. ecliptic osc. elements (AU, DAYS, DEG, period=Julian yrs):  
 
  EPOCH=  2455400.5 ! 2010-Jul-23.00 (CT)         Residual RMS= .33574         
    EC= .08862258545936168 QR= 2.152593546529499  TP= 2455592.744247395        
    OM= 103.9096808087324  W= 149.8373992529071   IN= 7.13406257854299         
    A= 2.361912323243681   MA= 307.8010497902649  ADIST= 2.571231099957864     
    PER= 3.62998           N= .271524121          ANGMOM= .026333048           
    DAN= 2.53782           DDN= 2.17658           L= 253.9401535               
    B= 3.5776197                                  TP= 2011-Jan-31.2442474      
 
Physical parameters (KM, SEC, rotational period in hours):
    GM= 17.8               RAD= 265.              ROTPER= 5.342                
    H= 3.2                 G= .320                B-V= .782                    
                           ALBEDO= .4228          STYP= V                      
 
ASTEROID comments: 
1: soln ref.= JPL#31, OCC=0
2: source=ORB
*******************************************************************************
 
 
*******************************************************************************
Ephemeris / WWW_USER Sat May  7 08:06:20 2011  Pasadena, USA     / Horizons    
*******************************************************************************
Target body name: 4 Vesta                         {source: JPL#31}
Center body name: Earth (399)                     {source: DE405}
Center-site name: GEOCENTRIC
*******************************************************************************
Start time      : A.D. 2011-Apr-18 00:00:00.0000 UT      
Stop  time      : A.D. 2020-May-18 00:00:00.0000 UT      
Step-size       : 1440 minutes
*******************************************************************************
Target pole/equ : No model available              {East-longitude -}
Target radii    : 289.0 x 280.0 x 229.0 km        {Equator, meridian, pole}    
Center geodetic : 0.00000000,0.00000000,0.0000000 {E-lon(deg),Lat(deg),Alt(km)}
Center cylindric: 0.00000000,0.00000000,0.0000000 {E-lon(deg),Dxy(km),Dz(km)}
Center pole/equ : High-precision EOP model        {East-longitude +}
Center radii    : 6378.1 x 6378.1 x 6356.8 km     {Equator, meridian, pole}    
Target primary  : Sun                             {source: DE405}
Interfering body: MOON (Req= 1737.400) km         {source: DE405}
Deflecting body : Sun, EARTH                      {source: DE405}
Deflecting GMs  : 1.3271E+11, 3.9860E+05 km^3/s^2                              
Small perturbers: Ceres, Pallas                   {source: SB405-CPV-2}
Small body GMs  : 6.32E+01, 1.43E+01 km^3/s^2                                  
Atmos refraction: NO (AIRLESS)
RA format       : HMS
Time format     : CAL 
EOP file        : eop.110506.p110728                                           
EOP coverage    : DATA-BASED 1962-JAN-20 TO 2011-MAY-06. PREDICTS-> 2011-JUL-27
Units conversion: 1 AU= 149597870.691 km, c= 299792.458 km/s, 1 day= 86400.0 s 
Table cut-offs 1: Elevation (-90.0deg=NO ),Airmass (>38.000=NO), Daylight (NO )
Table cut-offs 2: Solar Elongation (  0.0,180.0=NO )                           
*******************************************************************************
Initial FK5/J2000.0 heliocentric ecliptic osculating elements (AU, DAYS, DEG):
  EPOCH=  2455400.5 ! 2010-Jul-23.00 (CT)         Residual RMS= .33574         
    EC= .08862258545936168 QR= 2.152593546529499  TP= 2455592.744247395        
    OM= 103.9096808087324  W= 149.8373992529071   IN= 7.13406257854299         
Asteroid physical parameters (KM, SEC, rotational period in hours):
    GM= 17.8               RAD= 265.              ROTPER= 5.342                
    H= 3.2                 G= .320                B-V= .782                    
                           ALBEDO= .4228          STYP= V                      
*************************************************************************************************
 Date__(UT)__HR:MN     R.A._(ICRF/J2000.0)_DEC R.A.__(a-apparent)__DEC  APmag  S-brt   Illu% Cnst
*************************************************************************************************
$$SOE
 2012-Oct-19 00:00     05 40 41.04 +17 26 36.2 05 41 27.43 +17 26 55.4   7.45   5.00  97.112  Tau
 2012-Oct-20 00:00     05 40 44.22 +17 26 21.2 05 41 30.64 +17 26 40.2   7.43   5.00  97.173  Tau
 2012-Oct-21 00:00     05 40 45.61 +17 26 06.7 05 41 32.07 +17 26 25.7   7.42   5.00  97.236  Tau
 2012-Oct-22 00:00     05 40 45.20 +17 25 52.9 05 41 31.69 +17 26 11.9   7.40   5.00  97.301  Tau
 2012-Oct-23 00:00     05 40 42.99 +17 25 39.8 05 41 29.51 +17 25 58.9   7.38   5.00  97.366  Tau
 2012-Oct-24 00:00     05 40 38.96 +17 25 27.6 05 41 25.50 +17 25 46.7   7.36   5.00  97.433  Tau
 2012-Oct-25 00:00     05 40 33.10 +17 25 16.2 05 41 19.67 +17 25 35.5   7.34   5.01  97.501  Tau
 2012-Oct-26 00:00     05 40 25.42 +17 25 05.8 05 41 12.01 +17 25 25.2   7.32   5.01  97.569  Tau
 2012-Oct-27 00:00     05 40 15.89 +17 24 56.3 05 41 02.50 +17 25 15.8   7.30   5.01  97.639  Tau
 2012-Oct-28 00:00     05 40 04.53 +17 24 47.9 05 40 51.16 +17 25 07.6   7.28   5.02  97.710  Tau
 2012-Oct-29 00:00     05 39 51.31 +17 24 40.6 05 40 37.96 +17 25 00.5   7.26   5.02  97.781  Tau
 2012-Oct-30 00:00     05 39 36.24 +17 24 34.5 05 40 22.92 +17 24 54.6   7.25   5.02  97.853  Tau
 2012-Oct-31 00:00     05 39 19.32 +17 24 29.6 05 40 06.02 +17 24 49.9   7.23   5.03  97.926  Tau
 2012-Nov-01 00:00     05 39 00.53 +17 24 25.9 05 39 47.27 +17 24 46.6   7.21   5.03  98.000  Tau
 2012-Nov-02 00:00     05 38 39.89 +17 24 23.6 05 39 26.66 +17 24 44.6   7.19   5.04  98.073  Tau
 2012-Nov-03 00:00     05 38 17.40 +17 24 22.6 05 39 04.20 +17 24 44.0   7.17   5.04  98.147  Tau
 2012-Nov-04 00:00     05 37 53.05 +17 24 23.1 05 38 39.88 +17 24 44.9   7.15   5.04  98.222  Tau
 2012-Nov-05 00:00     05 37 26.86 +17 24 24.9 05 38 13.72 +17 24 47.3   7.13   5.04  98.296  Tau
 2012-Nov-06 00:00     05 36 58.82 +17 24 28.3 05 37 45.71 +17 24 51.2   7.11   5.05  98.370  Tau
 2012-Nov-07 00:00     05 36 28.96 +17 24 33.2 05 37 15.87 +17 24 56.7   7.09   5.05  98.445  Tau
 2012-Nov-08 00:00     05 35 57.28 +17 24 39.7 05 36 44.22 +17 25 03.7   7.07   5.05  98.519  Tau
 2012-Nov-09 00:00     05 35 23.79 +17 24 47.7 05 36 10.75 +17 25 12.4   7.05   5.05  98.592  Tau
 2012-Nov-10 00:00     05 34 48.52 +17 24 57.4 05 35 35.50 +17 25 22.8   7.03   5.04  98.666  Tau
 2012-Nov-11 00:00     05 34 11.48 +17 25 08.8 05 34 58.48 +17 25 34.8   7.01   5.04  98.738  Tau
 2012-Nov-12 00:00     05 33 32.71 +17 25 21.8 05 34 19.73 +17 25 48.5   6.98   5.04  98.810  Tau
 2012-Nov-13 00:00     05 32 52.21 +17 25 36.5 05 33 39.26 +17 26 03.9   6.96   5.04  98.881  Tau
 2012-Nov-14 00:00     05 32 10.04 +17 25 52.9 05 32 57.11 +17 26 21.0   6.94   5.03  98.951  Tau
 2012-Nov-15 00:00     05 31 26.22 +17 26 11.1 05 32 13.33 +17 26 40.0   6.92   5.02  99.019  Tau
 2012-Nov-16 00:00     05 30 40.79 +17 26 31.0 05 31 27.93 +17 27 00.7   6.90   5.02  99.086  Tau
 2012-Nov-17 00:00     05 29 53.80 +17 26 52.7 05 30 40.97 +17 27 23.2   6.88   5.01  99.152  Tau
 2012-Nov-18 00:00     05 29 05.28 +17 27 16.1 05 29 52.48 +17 27 47.6   6.86   5.00  99.216  Tau
 2012-Nov-19 00:00     05 28 15.29 +17 27 41.3 05 29 02.52 +17 28 13.8   6.84   4.99  99.279  Tau
 2012-Nov-20 00:00     05 27 23.87 +17 28 08.3 05 28 11.12 +17 28 41.7   6.82   4.98  99.339  Tau
 2012-Nov-21 00:00     05 26 31.08 +17 28 37.0 05 27 18.35 +17 29 11.5   6.80   4.97  99.398  Tau
 2012-Nov-22 00:00     05 25 36.96 +17 29 07.5 05 26 24.25 +17 29 43.0   6.78   4.95  99.454  Tau
 2012-Nov-23 00:00     05 24 41.57 +17 29 39.8 05 25 28.88 +17 30 16.3   6.76   4.94  99.508  Tau
 2012-Nov-24 00:00     05 23 44.98 +17 30 13.8 05 24 32.30 +17 30 51.4   6.73   4.92  99.560  Tau
 2012-Nov-25 00:00     05 22 47.22 +17 30 49.7 05 23 34.56 +17 31 28.3   6.71   4.91  99.609  Tau
 2012-Nov-26 00:00     05 21 48.37 +17 31 27.3 05 22 35.72 +17 32 07.0   6.69   4.89  99.655  Tau
 2012-Nov-27 00:00     05 20 48.49 +17 32 06.7 05 21 35.86 +17 32 47.5   6.67   4.87  99.699  Tau
 2012-Nov-28 00:00     05 19 47.63 +17 32 47.8 05 20 35.03 +17 33 29.8   6.65   4.85  99.739  Tau
 2012-Nov-29 00:00     05 18 45.88 +17 33 30.8 05 19 33.29 +17 34 13.9   6.63   4.83  99.777  Tau
 2012-Nov-30 00:00     05 17 43.28 +17 34 15.5 05 18 30.72 +17 34 59.8   6.61   4.80  99.811  Tau
 2012-Dec-01 00:00     05 16 39.92 +17 35 02.1 05 17 27.38 +17 35 47.5   6.58   4.78  99.843  Tau
 2012-Dec-02 00:00     05 15 35.86 +17 35 50.4 05 16 23.34 +17 36 37.1   6.56   4.76  99.871  Tau
 2012-Dec-03 00:00     05 14 31.18 +17 36 40.6 05 15 18.68 +17 37 28.5   6.54   4.73  99.895  Tau
 2012-Dec-04 00:00     05 13 25.94 +17 37 32.6 05 14 13.46 +17 38 21.7   6.52   4.70  99.917  Tau
 2012-Dec-05 00:00     05 12 20.23 +17 38 26.4 05 13 07.77 +17 39 16.8   6.50   4.68  99.934  Tau
 2012-Dec-06 00:00     05 11 14.13 +17 39 22.0 05 12 01.67 +17 40 13.8   6.48   4.65  99.949  Tau
 2012-Dec-07 00:00     05 10 07.71 +17 40 19.6 05 10 55.26 +17 41 12.5   6.46   4.63  99.959  Tau
 2012-Dec-08 00:00     05 09 01.05 +17 41 19.0 05 09 48.61 +17 42 13.2   6.45   4.60  99.967  Tau
 2012-Dec-09 00:00     05 07 54.23 +17 42 20.3 05 08 41.80 +17 43 15.7   6.44   4.59  99.970  Tau
 2012-Dec-10 00:00     05 06 47.34 +17 43 23.5 05 07 34.92 +17 44 20.2   6.44   4.58  99.970  Tau
 2012-Dec-11 00:00     05 05 40.46 +17 44 28.7 05 06 28.05 +17 45 26.6   6.45   4.57  99.966  Tau
 2012-Dec-12 00:00     05 04 33.68 +17 45 35.9 05 05 21.29 +17 46 35.0   6.46   4.57  99.959  Tau
